     2              NAVIGATION DATA                         RINEX VERSION / TYPE
CCRINEXN V1.6.0 UX  CDDIS               22-MAY-18 15:28     PGM / RUN BY / DATE 
IGS BROADCAST EPHEMERIS FILE                                COMMENT             
    0.1118D-07  0.7451D-08 -0.5960D-07 -0.5960D-07          ION ALPHA           
    0.9011D+05  0.1638D+05 -0.1966D+06 -0.6554D+05          ION BETA            
    0.000000000000D+00 0.000000000000D+00   147456     1995 DELTA-UTC: A0,A1,T,W
    18                                                      LEAP SECONDS        
                                                            END OF HEADER       
32 18  3 31 16  0  0.0-0.524619594216D-03 0.295585778076D-11 0.000000000000D+00
    0.790000000000D+02 0.518125000000D+02 0.444375647390D-08-0.431858538676D+00
    0.275112688541D-05 0.188515207265D-02 0.119861215353D-04 0.515365833664D+04
    0.576000000000D+06-0.298023223877D-07 0.457908540974D+00 0.186264514923D-08
    0.957708321927D+00 0.148062500000D+03-0.263670765090D+01-0.797068899772D-08
    0.302512598305D-09 0.100000000000D+01 0.199400000000D+04 0.000000000000D+00
    0.200000000000D+01 0.000000000000D+00 0.465661287308D-09 0.790000000000D+02
    0.568830000000D+06 0.000000000000D+00 0.000000000000D+00 0.000000000000D+00
 5 18  3 31 17 59 44.0-0.108620151877D-04 0.795807864051D-12 0.000000000000D+00
    0.270000000000D+02-0.849375000000D+02 0.483734435195D-08 0.661111187397D+00
   -0.433064997196D-05 0.530086806975D-02 0.832602381706D-05 0.515367407417D+04
    0.583184000000D+06-0.279396772385D-07-0.601591500758D+00 0.104308128357D-06
    0.947829500926D+00 0.211656250000D+03 0.611799293999D+00-0.836784855448D-08
   -0.557166065346D-09 0.100000000000D+01 0.199400000000D+04 0.000000000000D+00
    0.200000000000D+01 0.000000000000D+00-0.107102096081D-07 0.270000000000D+02
    0.576450000000D+06 0.400000000000D+01 0.000000000000D+00 0.000000000000D+00
17 18  3 31 17 59 44.0-0.110981985927D-03 0.329691829393D-11 0.000000000000D+00
    0.160000000000D+02 0.495000000000D+02 0.386230381011D-08-0.290128565751D+00
    0.260770320892D-05 0.122883383883D-01 0.127535313368D-04 0.515378990555D+04
    0.583184000000D+06-0.121071934700D-06-0.262660631567D+01 0.188127160072D-06
    0.982593263582D+00 0.149531250000D+03-0.178209544944D+01-0.789425769199D-08
    0.306798503269D-09 0.100000000000D+01 0.199400000000D+04 0.000000000000D+00
    0.200000000000D+01 0.000000000000D+00-0.111758708954D-07 0.160000000000D+02
    0.576120000000D+06 0.000000000000D+00 0.000000000000D+00 0.000000000000D+00
28 18  3 31 17 59 44.0 0.702089164406D-03 0.352429196937D-11 0.000000000000D+00
    0.300000000000D+01-0.853750000000D+02 0.416195922170D-08 0.728420040910D+00
   -0.459887087345D-05 0.195496485103D-01 0.952556729317D-05 0.515367592049D+04
    0.583184000000D+06-0.275671482086D-06 0.264603828138D+01-0.838190317154D-07
    0.986441358408D+00 0.218156250000D+03-0.152378285471D+01-0.822141377199D-08
   -0.613954165285D-09 0.100000000000D+01 0.199400000000D+04 0.000000000000D+00
    0.200000000000D+01 0.000000000000D+00-0.111758708954D-07 0.300000000000D+01
    0.580530000000D+06 0.000000000000D+00 0.000000000000D+00 0.000000000000D+00
29 18  3 31 17 59 44.0 0.473611056805D-03-0.613908923697D-11 0.000000000000D+00
    0.400000000000D+01 0.415625000000D+02 0.366622414152D-08 0.111103652882D+01
    0.214390456677D-05 0.629762420431D-03 0.133104622364D-04 0.515372447205D+04
    0.583184000000D+06-0.931322574616D-08-0.261609034118D+01 0.186264514923D-08
    0.983842026547D+00 0.134437500000D+03 0.878176846379D+00-0.760245953010D-08
    0.275725770799D-09 0.100000000000D+01 0.199400000000D+04 0.000000000000D+00
    0.200000000000D+01 0.000000000000D+00-0.102445483208D-07 0.400000000000D+01
    0.581700000000D+06 0.400000000000D+01 0.000000000000D+00 0.000000000000D+00
 1 18  3 31 18  0  0.0-0.376491807401D-04-0.238742359215D-11 0.000000000000D+00
    0.590000000000D+02 0.376250000000D+02 0.461590655675D-08-0.232309494168D+01
    0.197440385818D-05 0.752393214498D-02 0.352598726749D-05 0.515366468620D+04
    0.583200000000D+06 0.931322574616D-08-0.162380683112D+01-0.409781932831D-07
    0.970213848913D+00 0.318000000000D+03 0.611230104759D+00-0.821891377932D-08
    0.294297972978D-09 0.100000000000D+01 0.199400000000D+04 0.000000000000D+00
    0.200000000000D+01 0.000000000000D+00 0.558793544769D-08 0.590000000000D+02
    0.577998000000D+06 0.400000000000D+01 0.000000000000D+00 0.000000000000D+00
 2 18  3 31 18  0  0.0 0.158176291734D-03-0.110276232590D-10 0.000000000000D+00
    0.150000000000D+02 0.507812500000D+02 0.511307012275D-08-0.196897832598D+01
    0.276416540146D-05 0.178777965484D-01 0.309385359287D-05 0.515370149040D+04
    0.583200000000D+06 0.370666384697D-06-0.168375830974D+01-0.428408384323D-07
    0.949282346814D+00 0.312250000000D+03-0.187272734403D+01-0.836570560808D-08
    0.345728686702D-09 0.100000000000D+01 0.199400000000D+04 0.000000000000D+00
    0.200000000000D+01 0.000000000000D+00-0.204890966415D-07 0.150000000000D+02
    0.576000000000D+06 0.400000000000D+01 0.000000000000D+00 0.000000000000D+00
 3 18  3 31 18  0  0.0 0.408026389778D-04 0.818545231596D-11 0.000000000000D+00
    0.200000000000D+02-0.770625000000D+02 0.445089964885D-08 0.307175945740D+01
   -0.394135713577D-05 0.126821675803D-02 0.827386975288D-05 0.515379210281D+04
    0.583200000000D+06-0.186264514923D-07-0.580560056485D+00 0.130385160446D-07
    0.960947499046D+00 0.220187500000D+03 0.466006272380D+00-0.810748090885D-08
   -0.420017493008D-09 0.100000000000D+01 0.199400000000D+04 0.000000000000D+00
    0.200000000000D+01 0.000000000000D+00 0.232830643654D-08 0.200000000000D+02
    0.576030000000D+06 0.000000000000D+00 0.000000000000D+00 0.000000000000D+00
 4 18  3 31 18  0  0.0 0.491864047945D-04 0.295585778076D-11 0.000000000000D+00
    0.860000000000D+02-0.937500000000D+02 0.561023368875D-08 0.106975444939D+01
   -0.468827784061D-05 0.978213641793D-02 0.838935375214D-05 0.515368642616D+04
    0.583200000000D+06-0.104308128357D-06 0.258848792679D+01 0.484287738800D-07
    0.979599451472D+00 0.231500000000D+03 0.907939929331D+00-0.813462455405D-08
   -0.654312969047D-09 0.100000000000D+01 0.199400000000D+04 0.000000000000D+00
    0.200000000000D+01 0.630000000000D+02-0.195577740669D-07 0.860000000000D+02
    0.576000000000D+06 0.400000000000D+01 0.000000000000D+00 0.000000000000D+00
 5 18  3 31 18  0  0.0-0.108610838652D-04 0.795807864051D-12 0.000000000000D+00
    0.186000000000D+03-0.849375000000D+02 0.483734435195D-08 0.663445004016D+00
   -0.433064997196D-05 0.530086923391D-02 0.832602381706D-05 0.515367407227D+04
    0.583200000000D+06-0.279396772385D-07-0.601591639735D+00 0.104308128357D-06
    0.947829478982D+00 0.211656250000D+03 0.611799168188D+00-0.836784855448D-08
   -0.557166065346D-09 0.100000000000D+01 0.199400000000D+04 0.000000000000D+00
    0.290000000000D+01 0.000000000000D+00-0.107102096081D-07 0.186000000000D+03
    0.576000000000D+06 0.400000000000D+01 0.000000000000D+00 0.000000000000D+00
 6 18  3 31 18  0  0.0 0.410782638937D-03-0.147792889038D-11 0.000000000000D+00
    0.520000000000D+02 0.395625000000D+02 0.477591322167D-08-0.212456568947D+01
    0.208243727684D-05 0.120613770559D-02 0.348314642906D-05 0.515358971405D+04
    0.583200000000D+06 0.484287738800D-07-0.163214328296D+01 0.000000000000D+00
    0.969941283868D+00 0.319250000000D+03-0.115628424415D+01-0.842570810742D-08
    0.240367155114D-09 0.100000000000D+01 0.199400000000D+04 0.000000000000D+00
    0.200000000000D+01 0.000000000000D+00 0.465661287308D-08 0.520000000000D+02
    0.576000000000D+06 0.400000000000D+01 0.000000000000D+00 0.000000000000D+00
 7 18  3 31 18  0  0.0 0.214605126530D-03-0.579802872380D-11 0.000000000000D+00
    0.870000000000D+02 0.394687500000D+02 0.511449875369D-08-0.301708673581D+01
    0.195205211639D-05 0.113171105040D-01 0.270083546638D-05 0.515367321396D+04
    0.583200000000D+06-0.372529029846D-07 0.153118527432D+01-0.186264514923D-06
    0.958779627077D+00 0.329750000000D+03-0.254058088825D+01-0.840999316711D-08
    0.242867259253D-09 0.100000000000D+01 0.199400000000D+04 0.000000000000D+00
    0.200000000000D+01 0.000000000000D+00-0.111758708954D-07 0.870000000000D+02
    0.576240000000D+06 0.400000000000D+01 0.000000000000D+00 0.000000000000D+00
 8 18  3 31 18  0  0.0-0.962251797319D-04-0.125055521494D-11 0.000000000000D+00
    0.170000000000D+02 0.283750000000D+02 0.400480981710D-08 0.142793795249D+00
    0.134855508804D-05 0.344336626586D-02 0.122748315334D-04 0.515379082680D+04
    0.583200000000D+06 0.502914190292D-07-0.268830714879D+01-0.707805156708D-07
    0.969197644572D+00 0.149687500000D+03-0.480768392928D+00-0.780925368815D-08
    0.135719935290D-09 0.100000000000D+01 0.199400000000D+04 0.000000000000D+00
    0.200000000000D+01 0.000000000000D+00 0.558793544769D-08 0.170000000000D+02
    0.577530000000D+06 0.000000000000D+00 0.000000000000D+00 0.000000000000D+00
 9 18  3 31 18  0  0.0 0.509324017912D-03 0.170530256582D-11 0.000000000000D+00
    0.230000000000D+02 0.608125000000D+02 0.447947234861D-08 0.412324601718D-01
    0.288523733616D-05 0.107612332795D-02 0.119972974062D-04 0.515365994453D+04
    0.583200000000D+06-0.149011611938D-07 0.453161010466D+00 0.372529029846D-08
    0.953314704950D+00 0.142687500000D+03 0.180592012659D+01-0.800569033288D-08
    0.318941845157D-09 0.100000000000D+01 0.199400000000D+04 0.000000000000D+00
    0.200000000000D+01 0.000000000000D+00 0.139698386192D-08 0.230000000000D+02
    0.581850000000D+06 0.000000000000D+00 0.000000000000D+00 0.000000000000D+00
